<?xml version="1.0" encoding="UTF-8"?>
<ndm xmlns:xsi="http://www.w3.org/2001/XMLSchema-instance" xsi:noNamespaceSchemaLocation="https://sanaregistry.org/r/ndmxml_unqualified/ndmxml-2.0.0-master-2.0.xsd">
<omm id="CCSDS_OMM_VERS" version="2.0">
<header><CREATION_DATE/><ORIGINATOR/></header><body><segment><metadata><OBJECT_NAME>IRIDIUM 63</OBJECT_NAME><OBJECT_ID>1998-021B</OBJECT_ID><CENTER_NAME>EARTH</CENTER_NAME><REF_FRAME>TEME</REF_FRAME><TIME_SYSTEM>UTC</TIME_SYSTEM><MEAN_ELEMENT_THEORY>SGP4</MEAN_ELEMENT_THEORY></metadata><data><meanElements><EPOCH>2025-12-15T18:16:08.786784</EPOCH><MEAN_MOTION>14.36737979</MEAN_MOTION><ECCENTRICITY>.0002383</ECCENTRICITY><INCLINATION>86.3984</INCLINATION><RA_OF_ASC_NODE>5.9465</RA_OF_ASC_NODE><ARG_OF_PERICENTER>87.9369</ARG_OF_PERICENTER><MEAN_ANOMALY>272.2101</MEAN_ANOMALY></meanElements><tleParameters><EPHEMERIS_TYPE>0</EPHEMERIS_TYPE><CLASSIFICATION_TYPE>U</CLASSIFICATION_TYPE><NORAD_CAT_ID>25286</NORAD_CAT_ID><ELEMENT_SET_NO>999</ELEMENT_SET_NO><REV_AT_EPOCH>44991</REV_AT_EPOCH><BSTAR>.12753766E-3</BSTAR><MEAN_MOTION_DOT>.396E-5</MEAN_MOTION_DOT><MEAN_MOTION_DDOT>0</MEAN_MOTION_DDOT></tleParameters></data></segment></body></omm>
<omm id="CCSDS_OMM_VERS" version="2.0">
<header><CREATION_DATE/><ORIGINATOR/></header><body><segment><metadata><OBJECT_NAME>IRIDIUM 69</OBJECT_NAME><OBJECT_ID>1998-026A</OBJECT_ID><CENTER_NAME>EARTH</CENTER_NAME><REF_FRAME>TEME</REF_FRAME><TIME_SYSTEM>UTC</TIME_SYSTEM><MEAN_ELEMENT_THEORY>SGP4</MEAN_ELEMENT_THEORY></metadata><data><meanElements><EPOCH>2025-12-15T20:08:33.237312</EPOCH><MEAN_MOTION>14.41220046</MEAN_MOTION><ECCENTRICITY>.00041726</ECCENTRICITY><INCLINATION>86.3976</INCLINATION><RA_OF_ASC_NODE>18.6282</RA_OF_ASC_NODE><ARG_OF_PERICENTER>119.5841</ARG_OF_PERICENTER><MEAN_ANOMALY>240.5775</MEAN_ANOMALY></meanElements><tleParameters><EPHEMERIS_TYPE>0</EPHEMERIS_TYPE><CLASSIFICATION_TYPE>U</CLASSIFICATION_TYPE><NORAD_CAT_ID>25319</NORAD_CAT_ID><ELEMENT_SET_NO>999</ELEMENT_SET_NO><REV_AT_EPOCH>44922</REV_AT_EPOCH><BSTAR>.13353268E-3</BSTAR><MEAN_MOTION_DOT>.451E-5</MEAN_MOTION_DOT><MEAN_MOTION_DDOT>0</MEAN_MOTION_DDOT></tleParameters></data></segment></body></omm>
<omm id="CCSDS_OMM_VERS" version="2.0">
<header><CREATION_DATE/><ORIGINATOR/></header><body><segment><metadata><OBJECT_NAME>IRIDIUM 71</OBJECT_NAME><OBJECT_ID>1998-026B</OBJECT_ID><CENTER_NAME>EARTH</CENTER_NAME><REF_FRAME>TEME</REF_FRAME><TIME_SYSTEM>UTC</TIME_SYSTEM><MEAN_ELEMENT_THEORY>SGP4</MEAN_ELEMENT_THEORY></metadata><data><meanElements><EPOCH>2025-12-15T11:29:20.185440</EPOCH><MEAN_MOTION>14.41319534</MEAN_MOTION><ECCENTRICITY>.0002252</ECCENTRICITY><INCLINATION>86.3976</INCLINATION><RA_OF_ASC_NODE>13.4530</RA_OF_ASC_NODE><ARG_OF_PERICENTER>148.5306</ARG_OF_PERICENTER><MEAN_ANOMALY>211.6029</MEAN_ANOMALY></meanElements><tleParameters><EPHEMERIS_TYPE>0</EPHEMERIS_TYPE><CLASSIFICATION_TYPE>U</CLASSIFICATION_TYPE><NORAD_CAT_ID>25320</NORAD_CAT_ID><ELEMENT_SET_NO>999</ELEMENT_SET_NO><REV_AT_EPOCH>44970</REV_AT_EPOCH><BSTAR>.9219939E-4</BSTAR><MEAN_MOTION_DOT>.318E-5</MEAN_MOTION_DOT><MEAN_MOTION_DDOT>0</MEAN_MOTION_DDOT></tleParameters></data></segment></body></omm>
<omm id="CCSDS_OMM_VERS" version="2.0">
<header><CREATION_DATE/><ORIGINATOR/></header><body><segment><metadata><OBJECT_NAME>IRIDIUM 73</OBJECT_NAME><OBJECT_ID>1998-032C</OBJECT_ID><CENTER_NAME>EARTH</CENTER_NAME><REF_FRAME>TEME</REF_FRAME><TIME_SYSTEM>UTC</TIME_SYSTEM><MEAN_ELEMENT_THEORY>SGP4</MEAN_ELEMENT_THEORY></metadata><data><meanElements><EPOCH>2025-12-15T22:46:29.573760</EPOCH><MEAN_MOTION>14.51994352</MEAN_MOTION><ECCENTRICITY>.00029983</ECCENTRICITY><INCLINATION>86.4408</INCLINATION><RA_OF_ASC_NODE>329.6248</RA_OF_ASC_NODE><ARG_OF_PERICENTER>91.3907</ARG_OF_PERICENTER><MEAN_ANOMALY>268.7643</MEAN_ANOMALY></meanElements><tleParameters><EPHEMERIS_TYPE>0</EPHEMERIS_TYPE><CLASSIFICATION_TYPE>U</CLASSIFICATION_TYPE><NORAD_CAT_ID>25344</NORAD_CAT_ID><ELEMENT_SET_NO>999</ELEMENT_SET_NO><REV_AT_EPOCH>45693</REV_AT_EPOCH><BSTAR>.15885256E-3</BSTAR><MEAN_MOTION_DOT>.662E-5</MEAN_MOTION_DOT><MEAN_MOTION_DDOT>0</MEAN_MOTION_DDOT></tleParameters></data></segment></body></omm>
<omm id="CCSDS_OMM_VERS" version="2.0">
<header><CREATION_DATE/><ORIGINATOR/></header><body><segment><metadata><OBJECT_NAME>IRIDIUM 82</OBJECT_NAME><OBJECT_ID>1998-051A</OBJECT_ID><CENTER_NAME>EARTH</CENTER_NAME><REF_FRAME>TEME</REF_FRAME><TIME_SYSTEM>UTC</TIME_SYSTEM><MEAN_ELEMENT_THEORY>SGP4</MEAN_ELEMENT_THEORY></metadata><data><meanElements><EPOCH>2025-12-15T11:52:05.699424</EPOCH><MEAN_MOTION>15.46871481</MEAN_MOTION><ECCENTRICITY>.00596678</ECCENTRICITY><INCLINATION>86.3610</INCLINATION><RA_OF_ASC_NODE>19.7220</RA_OF_ASC_NODE><ARG_OF_PERICENTER>324.3619</ARG_OF_PERICENTER><MEAN_ANOMALY>35.3660</MEAN_ANOMALY></meanElements><tleParameters><EPHEMERIS_TYPE>0</EPHEMERIS_TYPE><CLASSIFICATION_TYPE>U</CLASSIFICATION_TYPE><NORAD_CAT_ID>25467</NORAD_CAT_ID><ELEMENT_SET_NO>999</ELEMENT_SET_NO><REV_AT_EPOCH>45182</REV_AT_EPOCH><BSTAR>.58270475E-3</BSTAR><MEAN_MOTION_DOT>.31497E-3</MEAN_MOTION_DOT><MEAN_MOTION_DDOT>0</MEAN_MOTION_DDOT></tleParameters></data></segment></body></omm>
</ndm>
