IRIDIUM 63              
1 25286U 98021B   25349.76121281  .00000396  00000+0  12754-3 0  9993
2 25286  86.3984   5.9465 0002383  87.9369 272.2101 14.36737979449918
IRIDIUM 69              
1 25319U 98026A   25349.83927358  .00000451  00000+0  13353-3 0  9990
2 25319  86.3976  18.6282 0004172 119.5841 240.5775 14.41220046449226
IRIDIUM 71              
1 25320U 98026B   25349.47870585  .00000318  00000+0  92199-4 0  9999
2 25320  86.3976  13.4530 0002252 148.5306 211.6029 14.41319534449707
IRIDIUM 73              
1 25344U 98032C   25349.94895340  .00000662  00000+0  15885-3 0  9998
2 25344  86.4408 329.6248 0002998  91.3907 268.7643 14.51994352456937
IRIDIUM 82              
1 25467U 98051A   25349.49451041  .00031497  00000+0  58270-3 0  9996
2 25467  86.3610  19.7220 0059667 324.3619  35.3660 15.46871481451820
